DMSP 5D-3 F16 (USA 172) 
1 28054U 03048A   26060.52148669  .00000168  00000+0  11128-3 0  9999
2 28054  99.0000  83.5869 0008211  92.9797  62.3764 14.14458407154267
METEOSAT-9 (MSG-2)      
1 28912U 05049B   26060.10419640  .00000110  00000+0  00000+0 0  9999
2 28912   9.1173  55.2137 0002005 217.8487 329.0293  1.00275370  5910
DMSP 5D-3 F17 (USA 191) 
1 29522U 06050A   26060.47532163  .00000213  00000+0  13228-3 0  9990
2 29522  98.7412  69.2376 0010231  10.3494 349.7889 14.14959555997184
FENGYUN 3A              
1 32958U 08026A   26060.41802034  .00000119  00000+0  76726-4 0  9991
2 32958  98.6787   3.3261 0009832  79.5790 280.6494 14.19543375920116
GOES 14                 
1 35491U 09033A   26060.47385824  .00000113  00000+0  00000+0 0  9995
2 35491   1.4111  84.4609 0002111 292.5107 156.2773  1.00122694  5511
DMSP 5D-3 F18 (USA 210) 
1 35951U 09057A   26060.50894153  .00000302  00000+0  17940-3 0  9991
2 35951  98.8949  41.5665 0010682 191.7646 168.3279 14.14829749844360
EWS-G2 (GOES 15)        
1 36411U 10008A   26060.49991909  .00000003  00000+0  00000+0 0  9999
2 36411   1.0016  85.1993 0001592  25.3190 292.2522  1.00268747 58559
COMS 1                  
1 36744U 10032A   26060.46155991 -.00000361  00000+0  00000+0 0  9993
2 36744   4.5285  76.9161 0001177 262.3700 114.2871  1.00272992 50018
FENGYUN 3B              
1 37214U 10059A   26060.54198774  .00000303  00000+0  18004-3 0  9992
2 37214  98.9792 106.0298 0022889 130.2233   4.1068 14.14816326792207
SUOMI NPP               
1 37849U 11061A   26060.49650794  .00000108  00000+0  72136-4 0  9999
2 37849  98.7860   2.1647 0000492 307.8163  52.2968 14.19540848743161
METEOSAT-10 (MSG-3)     
1 38552U 12035B   26060.30457892 -.00000021  00000+0  00000+0 0  9998
2 38552   4.4162  61.4751 0002456 289.6555 277.8404  1.00276482 49772
METOP-B                 
1 38771U 12049A   26060.42046838  .00000143  00000+0  85191-4 0  9996
2 38771  98.6660 113.9985 0001291 310.6780  49.4285 14.21441529697958
INSAT-3D                
1 39216U 13038B   26060.46155991 -.00000357  00000+0  00000+0 0  9994
2 39216   1.6477  83.9536 0002206 234.1493 136.7787  1.00269668 46005
FENGYUN 3C              
1 39260U 13052A   26060.54822463  .00000155  00000+0  99977-4 0  9994
2 39260  98.4878  39.4272 0014259 337.6814  22.3738 14.15725750643337
METEOR-M 2              
1 40069U 14037A   26060.51792780 -.00000064  00000+0 -10016-4 0  9990
2 40069  98.5006  40.1306 0005901   1.9426 358.1773 14.21423831604025
HIMAWARI-8              
1 40267U 14060A   26060.40372604 -.00000294  00000+0  00000+0 0  9994
2 40267   0.0140 122.9984 0000962 177.4565 144.7314  1.00270351 41674
FENGYUN 2G              
1 40367U 14090A   26060.39557934 -.00000319  00000+0  00000+0 0  9995
2 40367   5.3658  74.1209 0002095 153.8048 173.3085  1.00275552 40915
METEOSAT-11 (MSG-4)     
1 40732U 15034A   26060.36850338  .00000045  00000+0  00000+0 0  9996
2 40732   2.9298  71.7010 0001794 270.4204 319.1619  1.00265141  6134
ELEKTRO-L 2             
1 41105U 15074A   26060.37295924 -.00000133  00000+0  00000+0 0  9999
2 41105   6.4225  71.8480 0003479 234.1402 332.9412  1.00270670 37422
INSAT-3DR               
1 41752U 16054A   26060.39055264 -.00000095  00000+0  00000+0 0  9996
2 41752   0.0387  98.2193 0013478 183.1379  92.3948  1.00272042 34736
HIMAWARI-9              
1 41836U 16064A   26060.45600498 -.00000293  00000+0  00000+0 0  9992
2 41836   0.0213 200.2123 0001114 153.9020 110.0570  1.00272990 34132
GOES 16                 
1 41866U 16071A   26060.39905009 -.00000109  00000+0  00000+0 0  9998
2 41866   0.1396  90.4038 0002603 214.4077 253.3320  1.00270100 34024
FENGYUN 4A              
1 41882U 16077A   26060.47158634 -.00000375  00000+0  00000+0 0  9990
2 41882   2.0477  81.4569 0006419 134.0038 237.1028  1.00262912 33852
CYGFM05                 
1 41884U 16078A   26059.95183397  .00025021  00000+0  40708-3 0  9995
2 41884  34.9564 254.7350 0006629 209.0119 151.0236 15.51659346511908
CYGFM04                 
1 41885U 16078B   26059.89177646  .00065270  00000+0  93408-3 0  9994
2 41885  34.9314 227.5127 0005995 243.5018 116.5091 15.55013889512094
CYGFM02                 
1 41886U 16078C   26060.51053343  .00090188  00000+0  11925-2 0  9992
2 41886  34.9401 220.4965 0007008 249.1973 110.8000 15.57046200512332
CYGFM01                 
1 41887U 16078D   26059.91716065  .00026387  00000+0  42277-3 0  9997
2 41887  34.9395 256.7978 0006304 199.8608 160.1869 15.52079369511848
CYGFM08                 
1 41888U 16078E   26059.90562145  .00028214  00000+0  42821-3 0  9991
2 41888  34.9424 238.8536 0007927 225.3308 134.6769 15.53550079512082
CYGFM07                 
1 41890U 16078G   26060.51839037  .00031293  00000+0  46252-3 0  9993
2 41890  34.9440 223.3130 0006595 251.6157 108.3849 15.54270482512205
CYGFM03                 
1 41891U 16078H   26060.48952782  .00031616  00000+0  46956-3 0  9993
2 41891  34.9397 225.4835 0005819 235.7140 124.3033 15.54143479512179
FENGYUN 3D              
1 43010U 17072A   26060.53140334  .00000278  00000+0  15315-3 0  9996
2 43010  99.0009  33.0733 0001934  29.3525 330.7759 14.19712989429717
